[{"OBJECT_NAME":"STARLINK-5518","OBJECT_ID":"2023-064X","EPOCH":"2026-03-09T13:13:57.832320","MEAN_MOTION":14.98327015,"ECCENTRICITY":0.00031905,"INCLINATION":69.9999,"RA_OF_ASC_NODE":125.0083,"ARG_OF_PERICENTER":268.3098,"MEAN_ANOMALY":91.7695,"EPHEMERIS_TYPE":0,"CLASSIFICATION_TYPE":"U","NORAD_CAT_ID":56469,"ELEMENT_SET_NO":999,"REV_AT_EPOCH":15571,"BSTAR":-5.3395901e-5,"MEAN_MOTION_DOT":-7.3e-6,"MEAN_MOTION_DDOT":0},{"OBJECT_NAME":"SL-8 DEB","OBJECT_ID":"1971-114C","EPOCH":"2026-03-09T10:06:38.914272","MEAN_MOTION":14.97936297,"ECCENTRICITY":0.00069633,"INCLINATION":74.0033,"RA_OF_ASC_NODE":186.861,"ARG_OF_PERICENTER":298.1447,"MEAN_ANOMALY":61.9034,"EPHEMERIS_TYPE":0,"CLASSIFICATION_TYPE":"U","NORAD_CAT_ID":5778,"ELEMENT_SET_NO":999,"REV_AT_EPOCH":88447,"BSTAR":0.0010014796,"MEAN_MOTION_DOT":0.00011794,"MEAN_MOTION_DDOT":0}]
